SL-8 R/B                
1 15483U 85006B   26166.50673685  .00000181  00000+0  68642-4 0  9990
2 15483  74.0459  81.1564 0018826 328.5597 205.4420 14.37834407168082
SL-12 R/B(2)            
1 15772U 85042D   26166.62321098  .00000119  00000+0  75031-4 0  9993
2 15772  71.1079 240.8206 0036259 330.1140 135.1498 14.22005631128318
SL-14 R/B               
1 15945U 85069B   26166.41905185  .00000386  00000+0  40786-4 0  9991
2 15945  82.5269 293.0288 0017662 225.3367 134.6411 14.86514310187357
SL-16 R/B               
1 16182U 85097B   26166.57612758 -.00000203  00000+0 -77846-4 0  9991
2 16182  71.0034 294.4698 0005416 114.9955 322.5871 14.16610385101091
SL-14 R/B               
1 16496U 86006B   26166.50380034  .00000491  00000+0  49468-4 0  9998
2 16496  82.5262 167.6975 0075053 309.1565  50.2997 14.86944169163748
COSMOS 1743             
1 16719U 86034A   26166.48629414  .00037829  00000+0  35764-3 0  9990
2 16719  82.5273 330.5400 0003806 278.5316  81.5513 15.66808815195520
SL-14 R/B               
1 16792U 86046B   26166.60380574  .00000332  00000+0  35397-4 0  9991
2 16792  82.4816 347.6718 0021586 264.0272  95.8484 14.85670123140940
SL-14 R/B               
1 16882U 86055B   26166.59630238  .00000352  00000+0  37596-4 0  9999
2 16882  82.5204  34.6287 0019215  12.8899  49.1727 14.85722205133905
AJISAI (EGS)            
1 16908U 86061A   26166.53570784 -.00000112  00000+0 -10352-3 0  9994
2 16908  50.0065 152.4732 0011220 176.4001 281.6208 12.44516822480184
SL-14 R/B               
1 17567U 87024B   26166.60164851  .00000334  00000+0  35164-4 0  9991
2 17567  82.5279   0.7410 0016878 298.9685  60.9839 14.86212273102677
COSMOS 1833             
1 17589U 87027A   26166.26776325  .00000311  00000+0  19200-3 0  9992
2 17589  70.9175 120.9026 0022740  58.3302 302.0033 14.13048561 24108
SL-16 R/B               
1 17590U 87027B   26166.45151575 -.00000220  00000+0 -85219-4 0  9994
2 17590  71.0033  70.4861 0006466 314.2026  45.8566 14.17172125 29190
SL-14 R/B               
1 17912U 87038B   26166.57959104  .00000304  00000+0  32321-4 0  9998
2 17912  82.5009 204.5865 0018742 196.5926 163.4680 14.85444332 93767
COSMOS 1844             
1 17973U 87041A   26166.48069985 -.00000171  00000+0 -63434-4 0  9991
2 17973  70.8972 187.9071 0032978 238.0439 121.7476 14.14568262 17413
SL-14 R/B               
1 18153U 87055B   26166.60672403  .00000352  00000+0  37651-4 0  9997
2 18153  82.4996 256.7189 0021801  52.6380 307.6817 14.85710186 84478
COSMOS 1867             
1 18187U 87060A   26166.31684245 -.00000048  00000+0  19611-4 0  9994
2 18187  65.0116  33.2967 0016491 282.1654  77.7583 14.31515591 33913
SL-14 R/B               
1 18749U 88001B   26166.54126310  .00000345  00000+0  37067-4 0  9997
2 18749  82.5131 103.3220 0016455 275.5038  84.4301 14.85608558 56554
COSMOS 1933             
1 18958U 88020A   26166.52210760  .00003182  00000+0  15197-3 0  9992
2 18958  82.5118 154.0838 0003356 190.3772 169.7393 15.18702728 65070
SL-3 R/B                
1 19046U 88032B   26166.53244162  .00003181  00000+0  14639-3 0  9997
2 19046  97.5251 149.5748 0023745 251.2206 108.6453 15.20829737 66977
SL-16 R/B               
1 19120U 88039B   26166.57069075 -.00000066  00000+0 -85397-5 0  9991
2 19120  71.0139 221.5764 0022362 195.5864 164.4576 14.19629448972274
COSMOS 1953             
1 19210U 88050A   26166.57987996  .00006961  00000+0  23843-3 0  9999
2 19210  82.5082  59.6555 0012019 131.1516 229.0764 15.29959385 52740
SL-8 R/B                
1 19257U 88053B   26166.60547711  .00000145  00000+0  55296-4 0  9990
2 19257  74.0479 291.9729 0019156  87.8870 283.2258 14.38966875990685
COSMOS 1975             
1 19573U 88093A   26166.58399747  .00005953  00000+0  20793-3 0  9991
2 19573  82.5188  19.3151 0011168 177.0523 183.0785 15.29308659 34367
SL-14 R/B               
1 19574U 88093B   26166.45360434  .00000364  00000+0  38960-4 0  9996
2 19574  82.5310 310.2724 0022131  75.7911 341.6111 14.85740638 15532
SL-16 R/B               
1 19650U 88102B   26166.59256058 -.00000225  00000+0 -89441-4 0  9991
2 19650  71.0001 305.4946 0015892 227.6128 132.3651 14.16164651940757
INTERCOSMOS 24          
1 20261U 89080A   26166.34864974  .00000817  00000+0  23157-3 0  9998
2 20261  82.6067  40.8412 1188383  66.1671 305.9332 12.59659191679094
SL-14 R/B               
1 20262U 89080C   26166.56237151  .00000258  00000+0  76974-4 0  9999
2 20262  82.5930 110.3515 1228828 321.1205  30.7395 12.50569870672388
DELTA 1 R/B             
1 20323U 89089B   26166.49495563  .00000277  00000+0  76872-4 0  9999
2 20323  97.0636 358.3240 0069114 172.3064 187.9211 14.50730469909918
ARIANE 40 R/B           
1 20443U 90005H   26166.58543813  .00000211  00000+0  80373-4 0  9993
2 20443  98.2961 224.2512 0008803 269.9122  90.1058 14.39926626906891
DELTA 2 R/B(1)          
1 20453U 90008B   26166.53586234  .00076147  00000+0  56861-3 0  9991
2 20453  35.5998 246.7045 0065205  98.7694 262.0438 15.68589921941445
