OBJECT_NAME,OBJECT_ID,EPOCH,MEAN_MOTION,ECCENTRICITY,INCLINATION,RA_OF_ASC_NODE,ARG_OF_PERICENTER,MEAN_ANOMALY,EPHEMERIS_TYPE,CLASSIFICATION_TYPE,NORAD_CAT_ID,ELEMENT_SET_NO,REV_AT_EPOCH,BSTAR,MEAN_MOTION_DOT,MEAN_MOTION_DDOT
SL-8 R/B,1985-006B,2026-06-15T12:09:42.063840,14.37834407,.00188266,74.0459,81.1564,328.5597,205.4420,0,U,15483,999,16808,.68642482E-4,.181E-5,0
SL-12 R/B(2),1985-042D,2026-06-15T14:57:25.428672,14.22005631,.00362596,71.1079,240.8206,330.1140,135.1498,0,U,15772,999,12831,.75030676E-4,.119E-5,0
SL-14 R/B,1985-069B,2026-06-15T10:03:26.079840,14.86514310,.00176625,82.5269,293.0288,225.3367,134.6411,0,U,15945,999,18735,.4078618E-4,.386E-5,0
SL-16 R/B,1985-097B,2026-06-15T13:49:37.422912,14.16610385,.00054162,71.0034,294.4698,114.9955,322.5871,0,U,16182,999,10109,-.7784571E-4,-.203E-5,0
SL-14 R/B,1986-006B,2026-06-15T12:05:28.349376,14.86944169,.0075053,82.5262,167.6975,309.1565,50.2997,0,U,16496,999,16374,.49468051E-4,.491E-5,0
COSMOS 1743,1986-034A,2026-06-15T11:40:15.813696,15.66808815,.0003806,82.5273,330.5400,278.5316,81.5513,0,U,16719,999,19552,.35764387E-3,.37829E-3,0
SL-14 R/B,1986-046B,2026-06-15T14:29:28.815936,14.85670123,.00215863,82.4816,347.6718,264.0272,95.8484,0,U,16792,999,14094,.35397142E-4,.332E-5,0
SL-14 R/B,1986-055B,2026-06-15T14:18:40.525632,14.85722205,.00192158,82.5204,34.6287,12.8899,49.1727,0,U,16882,999,13390,.37596246E-4,.352E-5,0
AJISAI (EGS),1986-061A,2026-06-15T12:51:25.157376,12.44516822,.00112209,50.0065,152.4732,176.4001,281.6208,0,U,16908,999,48018,-.10351615E-3,-.112E-5,0
SL-14 R/B,1987-024B,2026-06-15T14:26:22.431264,14.86212273,.00168783,82.5279,0.7410,298.9685,60.9839,0,U,17567,999,10267,.35164422E-4,.334E-5,0
COSMOS 1833,1987-027A,2026-06-15T06:25:34.744800,14.13048561,.002274,70.9175,120.9026,58.3302,302.0033,0,U,17589,999,2410,.192E-3,.311E-5,0
SL-16 R/B,1987-027B,2026-06-15T10:50:10.960800,14.17172125,.00064669,71.0033,70.4861,314.2026,45.8566,0,U,17590,999,2919,-.85219152E-4,-.22E-5,0
SL-14 R/B,1987-038B,2026-06-15T13:54:36.665856,14.85444332,.00187427,82.5009,204.5865,196.5926,163.4680,0,U,17912,999,9376,.32320514E-4,.304E-5,0
COSMOS 1844,1987-041A,2026-06-15T11:32:12.467040,14.14568262,.00329786,70.8972,187.9071,238.0439,121.7476,0,U,17973,999,1741,-.63434307E-4,-.171E-5,0
SL-14 R/B,1987-055B,2026-06-15T14:33:40.956192,14.85710186,.00218014,82.4996,256.7189,52.6380,307.6817,0,U,18153,999,8447,.37651054E-4,.352E-5,0
COSMOS 1867,1987-060A,2026-06-15T07:36:15.187680,14.31515591,.00164917,65.0116,33.2967,282.1654,77.7583,0,U,18187,999,3391,.19610871E-4,-.48E-6,0
SL-14 R/B,1988-001B,2026-06-15T12:59:25.131840,14.85608558,.00164556,82.5131,103.3220,275.5038,84.4301,0,U,18749,999,5655,.37067169E-4,.345E-5,0
COSMOS 1933,1988-020A,2026-06-15T12:31:50.096640,15.18702728,.00033561,82.5118,154.0838,190.3772,169.7393,0,U,18958,999,6507,.15197208E-3,.3182E-4,0
SL-3 R/B,1988-032B,2026-06-15T12:46:42.955968,15.20829737,.00237453,97.5251,149.5748,251.2206,108.6453,0,U,19046,999,6697,.14639367E-3,.3181E-4,0
SL-16 R/B,1988-039B,2026-06-15T13:41:47.680800,14.19629448,.00223626,71.0139,221.5764,195.5864,164.4576,0,U,19120,999,97227,-.8539711E-5,-.66E-6,0
COSMOS 1953,1988-050A,2026-06-15T13:55:01.628544,15.29959385,.00120197,82.5082,59.6555,131.1516,229.0764,0,U,19210,999,5274,.23843082E-3,.6961E-4,0
SL-8 R/B,1988-053B,2026-06-15T14:31:53.222304,14.38966875,.00191567,74.0479,291.9729,87.8870,283.2258,0,U,19257,999,99068,.55296113E-4,.145E-5,0
COSMOS 1975,1988-093A,2026-06-15T14:00:57.381408,15.29308659,.00111682,82.5188,19.3151,177.0523,183.0785,0,U,19573,999,3436,.20792972E-3,.5953E-4,0
SL-14 R/B,1988-093B,2026-06-15T10:53:11.414976,14.85740638,.00221311,82.5310,310.2724,75.7911,341.6111,0,U,19574,999,1553,.38960171E-4,.364E-5,0
SL-16 R/B,1988-102B,2026-06-15T14:13:17.234112,14.16164651,.00158928,71.0001,305.4946,227.6128,132.3651,0,U,19650,999,94075,-.89440944E-4,-.225E-5,0
INTERCOSMOS 24,1989-080A,2026-06-15T08:22:03.337536,12.59659191,.11883835,82.6067,40.8412,66.1671,305.9332,0,U,20261,999,67909,.23157174E-3,.817E-5,0
SL-14 R/B,1989-080C,2026-06-15T13:29:48.898464,12.50569870,.12288287,82.5930,110.3515,321.1205,30.7395,0,U,20262,999,67238,.76974287E-4,.258E-5,0
DELTA 1 R/B,1989-089B,2026-06-15T11:52:44.166432,14.50730469,.00691146,97.0636,358.3240,172.3064,187.9211,0,U,20323,999,90991,.76871943E-4,.277E-5,0
ARIANE 40 R/B,1990-005H,2026-06-15T14:03:01.854432,14.39926626,.0008803,98.2961,224.2512,269.9122,90.1058,0,U,20443,999,90689,.80373472E-4,.211E-5,0
DELTA 2 R/B(1),1990-008B,2026-06-15T12:51:38.506176,15.68589921,.00652055,35.5998,246.7045,98.7694,262.0438,0,U,20453,999,94144,.56860751E-3,.76147E-3,0
